              M50 Cartesian                         M50 Keplerian  
    -----------------------------------       --------------------------------
     X    =        -397488.62                 A    =         6779807.29  meter
     Y    =        5031567.82  meter          E    =           .0009636
     Z    =        4519178.73                 I    =           51.91728
     XDOT =      -6106.727407                 Wp   =           97.66833
     YDOT =      -3365.674529  meter/sec      RA   =           49.95914  deg
     ZDOT =       3203.075165                 TA   =          320.26889
                                              MA   =          320.33943
                                              Ha   =            221.188  n.mi
                                              Hp   =            213.679
 
              M50 Cartesian                         J2K Cartesian  
    -----------------------------------       --------------------------------
     X    =       -1304096.53                 X    =         -475675.81
     Y    =       16507768.44  feet           Y    =         5026686.27  meter
     Z    =       14826701.89                 Z    =         4517057.23
     XDOT =     -20035.194905                 XDOT =       -6084.197076
     YDOT =     -11042.239269  feet/sec       YDOT =       -3433.837617  meter/sec
     ZDOT =      10508.776788                 ZDOT =        3173.465036
 
              TDR Cartesian                         TDR Cartesian  
    -----------------------------------       --------------------------------
     X    =        3018584.59                 X    =          920064.58
     Y    =       16291000.59  feet           Y    =         4965496.98  meter
     Z    =       14816532.05                 Z    =         4516078.97
     XDOT =     -21119.381355                 XDOT =       -6437.187437
     YDOT =      -5549.075098  feet/sec       YDOT =       -1691.358090  meter/sec
     ZDOT =      10380.716906                 ZDOT =        3164.042513
  
  
    The mean element set is posted at the UTC for which position is
    just north of the next ascending node relative to the above
    vector time
 
 
    TWO LINE MEAN ELEMENT SET
  
    ISS
    1 25544U 98067A   16098.55390452  .00016717  00000-0  10270-3 0  9015
    2 25544  51.6411  50.3324 0002449  33.7122 326.4186 15.54422753 33996
  
  
    Satellite: ISS
    Catalog Number: 25544
    Epoch time:      16098.55390452   =   yrday.fracday
    Element set:     901
    Inclination:       51.6411  deg
    RA of node:        50.3324  deg
    Eccentricity:     .0002449     
    Arg of perigee:    33.7122  deg
    Mean anomaly:     326.4186  deg
    Mean motion:   15.54422753  rev/day
    Decay rate:    1.67170E-04  rev/day^2
    Epoch rev:            3399
    Checksum:              295
 
 
    Coasting Arc #3 (Orbit 3413)
    ---------------------------------------
 
    Vector Time (GMT): 2016/099/12:00:00.000
    Vector Time (MET): N/A
    Weight (LBS)     : 922442.8
 
              M50 Cartesian                         M50 Keplerian  
    -----------------------------------       --------------------------------
     X    =        1851126.04                 A    =         6777093.57  meter
     Y    =       -3932380.21  meter          E    =           .0015995
     Z    =       -5213964.72                 I    =           51.88750
     XDOT =       6010.991498                 Wp   =           73.65685
     YDOT =       4560.218122  meter/sec      RA   =           44.97853  deg
     ZDOT =      -1304.159148                 TA   =          183.83482
                                              MA   =          183.84709
                                              Ha   =            221.242  n.mi
                                              Hp   =            213.705
 
              M50 Cartesian                         J2K Cartesian  
    -----------------------------------       --------------------------------
     X    =        6073248.18                 X    =         1920288.89
     Y    =      -12901509.89  feet           Y    =        -3911293.57  meter
     Z    =      -17106183.47                 Z    =        -5204803.85
     XDOT =      19721.100714                 XDOT =        5965.886390
     YDOT =      14961.345543  feet/sec       YDOT =        4627.184681  meter/sec
     ZDOT =      -4278.737362                 ZDOT =       -1275.068898
 
              TDR Cartesian                         TDR Cartesian  
    -----------------------------------       --------------------------------
     X    =        2306205.89                 X    =          702931.56
     Y    =      -14120936.93  feet           Y    =        -4304061.58  meter
     Z    =      -17065619.48                 Z    =        -5201600.82
     XDOT =      22128.091027                 XDOT =        6744.642145
     YDOT =       8637.417919  feet/sec       YDOT =        2632.684982  meter/sec
     ZDOT =      -4153.178130                 ZDOT =       -1265.888694
  
  
    The mean element set is posted at the UTC for which position is
    just north of the next ascending node relative to the above
    vector time
 
 
    TWO LINE MEAN ELEMENT SET
  
    ISS
    1 25544U 98067A   16099.51827112  .00016717  00000-0  10270-3 0  9021
    2 25544  51.6421  45.5229 0002557  36.8395 323.2934 15.54401982 34148
  
  
    Satellite: ISS
    Catalog Number: 25544
    Epoch time:      16099.51827112   =   yrday.fracday
    Element set:     902
    Inclination:       51.6421  deg
    RA of node:        45.5229  deg
    Eccentricity:     .0002557     
    Arg of perigee:    36.8395  deg
    Mean anomaly:     323.2934  deg
    Mean motion:   15.54401982  rev/day
    Decay rate:    1.67170E-04  rev/day^2
    Epoch rev:            3414
    Checksum:              303
 
 
    Coasting Arc #4 (Orbit 3429)
    ---------------------------------------
 
    Vector Time (GMT): 2016/100/12:00:00.000
    Vector Time (MET): N/A
    Weight (LBS)     : 922442.8
 
              M50 Cartesian                         M50 Keplerian  
    -----------------------------------       --------------------------------
     X    =       -3309906.45                 A    =         6776678.45  meter
     Y    =        2641624.85  meter          E    =           .0005723
     Z    =        5287102.07                 I    =           51.86346
     XDOT =      -5457.693868                 Wp   =           50.70828
     YDOT =      -5340.958559  meter/sec      RA   =           39.99293  deg
     ZDOT =       -744.096826                 TA   =           46.39826
                                              MA   =           46.35078
                                              Ha   =            221.373  n.mi
                                              Hp   =            213.562
 
              M50 Cartesian                         J2K Cartesian  
    -----------------------------------       --------------------------------
     X    =      -10859273.13                 X    =        -3364882.62
     Y    =        8666748.18  feet           Y    =         2604304.35  meter
     Z    =       17346135.39                 Z    =         5270889.36
     XDOT =     -17905.819776                 XDOT =       -5393.949751
     YDOT =     -17522.829918  feet/sec       YDOT =       -5401.633773  meter/sec
     ZDOT =      -2441.262554                 ZDOT =        -770.454042
 
              TDR Cartesian                         TDR Cartesian  
    -----------------------------------       --------------------------------
     X    =       -7893789.20                 X    =        -2406026.95
     Y    =       11540427.04  feet           Y    =         3517522.16  meter
     Z    =       17275166.73                 Z    =         5265470.82
     XDOT =     -21452.545263                 XDOT =       -6538.735796
     YDOT =     -10829.397708  feet/sec       YDOT =       -3300.800421  meter/sec
     ZDOT =      -2554.779025                 ZDOT =        -778.696647
  
  
    The mean element set is posted at the UTC for which position is
    just north of the next ascending node relative to the above
    vector time
 
 
    TWO LINE MEAN ELEMENT SET
  
    ISS
    1 25544U 98067A   16100.54691612  .00016717  00000-0  10270-3 0  9032
    2 25544  51.6425  40.3941 0002648  38.7546 321.3796 15.54426312 34303
  
  
    Satellite: ISS
    Catalog Number: 25544
    Epoch time:      16100.54691612   =   yrday.fracday
    Element set:     903
    Inclination:       51.6425  deg
    RA of node:        40.3941  deg
    Eccentricity:     .0002648     
    Arg of perigee:    38.7546  deg
    Mean anomaly:     321.3796  deg
    Mean motion:   15.54426312  rev/day
    Decay rate:    1.67170E-04  rev/day^2
    Epoch rev:            3430
    Checksum:              289
 
 
    Coasting Arc #5 (Orbit 3444)
    ---------------------------------------
 
    Vector Time (GMT): 2016/101/12:00:00.000
    Vector Time (MET): N/A
    Weight (LBS)     : 944180.3
 
              M50 Cartesian                         M50 Keplerian  
    -----------------------------------       --------------------------------
     X    =        4641551.92                 A    =         6778931.40  meter
     Y    =       -1325131.85  meter          E    =           .0012344
     Z    =       -4770856.04                 I    =           51.84539
     XDOT =       4389.499129                 Wp   =           97.34719
     YDOT =       5665.518381  meter/sec      RA   =           35.00770  deg
     ZDOT =       2701.347202                 TA   =          199.27834
                                              MA   =          199.32509
                                              Ha   =            221.303  n.mi
                                              Hp   =            213.618
 
